$$SOE
2460147.500000000, A.D. 2023-Jul-22 00:00:00.0000, -2.091483748057244E+08, -3.061728806008444E+08, 2.439908822368509E+07,
2460154.500000000, A.D. 2023-Jul-29 00:00:00.0000, -1.985108224283811E+08, -3.103953348905075E+08, 2.474221654317267E+07,
2460161.500000000, A.D. 2023-Aug-05 00:00:00.0000, -1.876819867763920E+08, -3.143185591861012E+08, 2.506149302828905E+07,
2460168.500000000, A.D. 2023-Aug-12 00:00:00.0000, -1.766688432301376E+08, -3.179329659679266E+08, 2.535614703017242E+07,
2460175.500000000, A.D. 2023-Aug-19 00:00:00.0000, -1.654788512060731E+08, -3.212289518795027E+08, 2.562540632579553E+07,
2460182.500000000, A.D. 2023-Aug-26 00:00:00.0000, -1.541199750528181E+08, -3.241969174402824E+08, 2.586849869846614E+07,
2460189.500000000, A.D. 2023-Sep-02 00:00:00.0000, -1.426007049288776E+08, -3.268272891189484E+08, 2.608465369677061E+07,
2460196.500000000, A.D. 2023-Sep-09 00:00:00.0000, -1.309300774575823E+08, -3.291105439555190E+08, 2.627310457722160E+07,
2460203.500000000, A.D. 2023-Sep-16 00:00:00.0000, -1.191176957979340E+08, -3.310372369333115E+08, 2.643309042220266E+07,
2460210.500000000, A.D. 2023-Sep-23 00:00:00.0000, -1.071737484945363E+08, -3.325980309505055E+08, 2.656385842967859E+07,
2460217.500000000, A.D. 2023-Sep-30 00:00:00.0000, -9.510902719662789E+07, -3.337837283270200E+08, 2.666466651352735E+07,
2460224.500000000, A.D. 2023-Oct-07 00:00:00.0000, -8.293494531910504E+07, -3.345853045010732E+08, 2.673478639505814E+07,
2460231.500000000, A.D. 2023-Oct-14 00:00:00.0000, -7.066355629170927E+07, -3.349939473228373E+08, 2.677350682700430E+07,
2460238.500000000, A.D. 2023-Oct-21 00:00:00.0000, -5.830756782226227E+07, -3.350011004171294E+08, 2.678013679102664E+07,
2460245.500000000, A.D. 2023-Oct-28 00:00:00.0000, -4.588035322192740E+07, -3.345985084012905E+08, 2.675400898846632E+07,
2460252.500000000, A.D. 2023-Nov-04 00:00:00.0000, -3.339596063436105E+07, -3.337782647381831E+08, 2.669448367755029E+07,
2460259.500000000, A.D. 2023-Nov-11 00:00:00.0000, -2.086911955263143E+07, -3.325328627911254E+08, 2.660095278975706E+07,
2460266.500000000, A.D. 2023-Nov-18 00:00:00.0000, -8.315243938186561E+06, -3.308552500620939E+08, 2.647284429373914E+07,
2460273.500000000, A.D. 2023-Nov-25 00:00:00.0000, 4.249568622024844E+06, -3.287388854504758E+08, 2.630962679074307E+07,
2460280.500000000, A.D. 2023-Dec-02 00:00:00.0000, 1.680854225951155E+07, -3.261777993408861E+08, 2.611081432172348E+07,
2460287.500000000, A.D. 2023-Dec-09 00:00:00.0000, 2.934423326940416E+07, -3.231666563077025E+08, 2.587597135291480E+07,
2460294.500000000, A.D. 2023-Dec-16 00:00:00.0000, 4.183854646779639E+07, -3.197008200750931E+08, 2.560471788740860E+07,
2460301.500000000, A.D. 2023-Dec-23 00:00:00.0000, 5.427275832446621E+07, -3.157764196107748E+08, 2.529673469282693E+07,
2460308.500000000, A.D. 2023-Dec-30 00:00:00.0000, 6.662754602514321E+07, -3.113904147781193E+08, 2.495176881186256E+07,
2460315.500000000, A.D. 2024-Jan-06 00:00:00.0000, 7.888302115151645E+07, -3.065406632844673E+08, 2.456963927509788E+07,
2460322.500000000, A.D. 2024-Jan-13 00:00:00.0000, 9.101877156445542E+07, -3.012259900144920E+08, 2.415024251937203E+07,
2460329.500000000, A.D. 2024-Jan-20 00:00:00.0000, 1.030139130598626E+08, -2.954462548558937E+08, 2.369355758684069E+07,
2460336.500000000, A.D. 2024-Jan-27 00:00:00.0000, 1.148471490267112E+08, -2.892024174673773E+08, 2.319965127248380E+07,
2460343.500000000, A.D. 2024-Feb-03 00:00:00.0000, 1.264968378315133E+08, -2.824965989548770E+08, 2.266868310329099E+07,
2460350.500000000, A.D. 2024-Feb-10 00:00:00.0000, 1.379410682352194E+08, -2.753321396922054E+08, 2.210091001558857E+07,
2460357.500000000, A.D. 2024-Feb-17 00:00:00.0000, 1.491577428669714E+08, -2.677136521672640E+08, 2.149669062976879E+07,
2460364.500000000, A.D. 2024-Feb-24 00:00:00.0000, 1.601246695156001E+08, -2.596470676911324E+08, 2.085648902857299E+07,
2460371.500000000, A.D. 2024-Mar-02 00:00:00.0000, 1.708196598184098E+08, -2.511396758401841E+08, 2.018087794025144E+07,
2460378.500000000, A.D. 2024-Mar-09 00:00:00.0000, 1.812206348526401E+08, -2.422001555465320E+08, 1.947054121673511E+07,
2460385.500000000, A.D. 2024-Mar-16 00:00:00.0000, 1.913057371995021E+08, -2.328385965416283E+08, 1.872627549920130E+07,
2460392.500000000, A.D. 2024-Mar-23 00:00:00.0000, 2.010534483532433E+08, -2.230665090252440E+08, 1.794899108877325E+07,
2460399.500000000, A.D. 2024-Mar-30 00:00:00.0000, 2.104427080194038E+08, -2.128968206713320E+08, 1.713971214875443E+07,
2460406.500000000, A.D. 2024-Apr-06 00:00:00.0000, 2.194530341783893E+08, -2.023438635599925E+08, 1.629957587280256E+07,
2460413.500000000, A.D. 2024-Apr-13 00:00:00.0000, 2.280646459520845E+08, -1.914233496081181E+08, 1.542983031289251E+07,
2460420.500000000, A.D. 2024-Apr-20 00:00:00.0000, 2.362585866955170E+08, -1.801523314644502E+08, 1.453183114667849E+07,
2460427.500000000, A.D. 2024-Apr-27 00:00:00.0000, 2.440168440775457E+08, -1.685491493250203E+08, 1.360703747157409E+07,
2460434.500000000, A.D. 2024-May-04 00:00:00.0000, 2.513224654636382E+08, -1.566333645254564E+08, 1.265700657293077E+07,
2460441.500000000, A.D. 2024-May-11 00:00:00.0000, 2.581596670596990E+08, -1.444256804306662E+08, 1.168338766884793E+07,
2460448.500000000, A.D. 2024-May-18 00:00:00.0000, 2.645139351690952E+08, -1.319478512897866E+08, 1.068791467991179E+07,
2460455.500000000, A.D. 2024-May-25 00:00:00.0000, 2.703721179585788E+08, -1.192225800211707E+08, 9.672398096769400E+06,
2460462.500000000, A.D. 2024-Jun-01 00:00:00.0000, 2.757225063105229E+08, -1.062734061962603E+08, 8.638716031259470E+06,
2460469.500000000, A.D. 2024-Jun-08 00:00:00.0000, 2.805549027126678E+08, -9.312458568091707E+07, 7.588804539865423E+06,
2460476.500000000, A.D. 2024-Jun-15 00:00:00.0000, 2.848606775223783E+08, -7.980096300917247E+07, 6.524647356661335E+06,
2460483.500000000, A.D. 2024-Jun-22 00:00:00.0000, 2.886328108133315E+08, -6.632783708628904E+07, 5.448265367901150E+06,
2460490.500000000, A.D. 2024-Jun-29 00:00:00.0000, 2.918659171805359E+08, -5.273082392519742E+07, 4.361706025336880E+06,
2460497.500000000, A.D. 2024-Jul-06 00:00:00.0000, 2.945562559279389E+08, -3.903572081434304E+07, 3.267032406181073E+06,
2460504.500000000, A.D. 2024-Jul-13 00:00:00.0000, 2.967017286647178E+08, -2.526837100653192E+07, 2.166312124371352E+06,
2460511.500000000, A.D. 2024-Jul-20 00:00:00.0000, 2.983018626984128E+08, -1.145452963899113E+07, 1.061606518659540E+06,
2460518.500000000, A.D. 2024-Jul-27 00:00:00.0000, 2.993577802146425E+08, 2.380266398724949E+06, -4.503975946489023E+04,
2460525.500000000, A.D. 2024-Aug-03 00:00:00.0000, 2.998721544038786E+08, 1.621082266367134E+07, -1.151608684390155E+06,
2460532.500000000, A.D. 2024-Aug-10 00:00:00.0000, 2.998491537966796E+08, 3.001240399342510E+07, -2.256118222434243E+06,
2460539.500000000, A.D. 2024-Aug-17 00:00:00.0000, 2.992943761195690E+08, 4.376084277953275E+07, -3.356631029946644E+06,
2460546.500000000, A.D. 2024-Aug-24 00:00:00.0000, 2.982147730915568E+08, 5.743263766981743E+07, -4.451262408076301E+06,
2460553.500000000, A.D. 2024-Aug-31 00:00:00.0000, 2.966185677535801E+08, 7.100504188707444E+07, -5.538187469209149E+06,
2460560.500000000, A.D. 2024-Sep-07 00:00:00.0000, 2.945151662118660E+08, 8.445614077496354E+07, -6.615647497375492E+06,
2460567.500000000, A.D. 2024-Sep-14 00:00:00.0000, 2.919150653855846E+08, 9.776491928275698E+07, -7.681955406820890E+06,
2460574.500000000, A.D. 2024-Sep-21 00:00:00.0000, 2.888297562005209E+08, 1.109113197476637E+08, -8.735500072361454E+06,
2460581.500000000, A.D. 2024-Sep-28 00:00:00.0000, 2.852716231637976E+08, 1.238762868906831E+08, -9.774749760682993E+06,
2460588.500000000, A.D. 2024-Oct-05 00:00:00.0000, 2.812538453068237E+08, 1.366418003333786E+08, -1.079825502537154E+07,
2460595.500000000, A.D. 2024-Oct-12 00:00:00.0000, 2.767902993238537E+08, 1.491908980754026E+08, -1.180465082627771E+07,
2460602.500000000, A.D. 2024-Oct-19 00:00:00.0000, 2.718954642166659E+08, 1.615076912491426E+08, -1.279265778083608E+07,
2460609.500000000, A.D. 2024-Oct-26 00:00:00.0000, 2.665843283359925E+08, 1.735773700330353E+08, -1.376108266343374E+07,
2460616.500000000, A.D. 2024-Nov-02 00:00:00.0000, 2.608722998547514E+08, 1.853862013296623E+08, -1.470881824751952E+07,
2460623.500000000, A.D. 2024-Nov-09 00:00:00.0000, 2.547751214050138E+08, 1.969215190331044E+08, -1.563484256031789E+07,
2460630.500000000, A.D. 2024-Nov-16 00:00:00.0000, 2.483087894055020E+08, 2.081717077163779E+08, -1.653821761766879E+07,
2460637.500000000, A.D. 2024-Nov-23 00:00:00.0000, 2.414894785022632E+08, 2.191261805243572E+08, -1.741808771368115E+07,
2460644.500000000, A.D. 2024-Nov-30 00:00:00.0000, 2.343334715909973E+08, 2.297753520502139E+08, -1.827367735378423E+07,
2460651.500000000, A.D. 2024-Dec-07 00:00:00.0000, 2.268570959955514E+08, 2.401106074049406E+08, -1.910428889972875E+07,
2460658.500000000, A.D. 2024-Dec-14 00:00:00.0000, 2.190766651693377E+08, 2.501242694437155E+08, -1.990929982434903E+07,
2460665.500000000, A.D. 2024-Dec-21 00:00:00.0000, 2.110084235619241E+08, 2.598095635997466E+08, -2.068815951977222E+07,
2460672.500000000, A.D. 2024-Dec-28 00:00:00.0000, 2.026684965228187E+08, 2.691605780074926E+08, -2.144038613415895E+07,
2460679.500000000, A.D. 2025-Jan-04 00:00:00.0000, 1.940728476855461E+08, 2.781722218700942E+08, -2.216556352918249E+07,
2460686.500000000, A.D. 2025-Jan-11 00:00:00.0000, 1.852372417937714E+08, 2.868401842419212E+08, -2.286333809613767E+07,
2460693.500000000, A.D. 2025-Jan-18 00:00:00.0000, 1.761772117945426E+08, 2.951608927689165E+08, -2.353341545642561E+07,
2460700.500000000, A.D. 2025-Jan-25 00:00:00.0000, 1.669080301623243E+08, 3.031314723261475E+08, -2.417555713866597E+07,
2460707.500000000, A.D. 2025-Feb-01 00:00:00.0000, 1.574446843536802E+08, 3.107497038859226E+08, -2.478957728062490E+07,
2460714.500000000, A.D. 2025-Feb-08 00:00:00.0000, 1.478018561573815E+08, 3.180139839448262E+08, -2.537533938497104E+07,
$$EOE